OBJECT_NAME,OBJECT_ID,EPOCH,MEAN_MOTION,ECCENTRICITY,INCLINATION,RA_OF_ASC_NODE,ARG_OF_PERICENTER,MEAN_ANOMALY,EPHEMERIS_TYPE,CLASSIFICATION_TYPE,NORAD_CAT_ID,ELEMENT_SET_NO,REV_AT_EPOCH,BSTAR,MEAN_MOTION_DOT,MEAN_MOTION_DDOT
STARLINK-37700,2026-115E,2026-06-17T13:45:18.845856,15.49206782,.00013083,97.2832,185.5677,93.0706,267.0695,0,U,69215,999,471,.40122199E-3,.21805E-3,0
STARLINK-37766,2026-115F,2026-06-17T14:00:01.000224,15.49187943,.00014379,97.2851,185.9319,78.1526,92.2320,0,U,69216,999,475,.37878357E-3,.20564E-3,0
STARLINK-37763,2026-115G,2026-06-17T14:00:01.000224,15.49189696,.00017039,97.2847,185.8773,90.8406,311.3942,0,U,69217,999,475,.1840912E-3,.9935E-4,0
STARLINK-37724,2026-115H,2026-06-17T14:00:01.000224,15.49771349,.00018084,97.2851,185.9753,100.0577,159.3419,0,U,69218,999,475,-.49549321E-1,-.2447565E-1,0
STARLINK-37758,2026-115J,2026-06-17T14:00:01.000224,15.50340304,.00017949,97.2851,185.9838,105.3254,176.0060,0,U,69219,999,475,-.4739566E-1,-.2350452E-1,0
STARLINK-37201,2026-115K,2026-06-17T14:00:01.000224,15.49878861,.00018933,97.2855,185.9821,99.2360,174.2755,0,U,69220,999,475,-.49837253E-1,-.246865E-1,0
STARLINK-37728,2026-115L,2026-06-17T14:00:01.000224,15.49174750,.00007356,97.2850,185.9676,112.0870,139.7168,0,U,69221,999,475,.56051014E-3,.30496E-3,0
STARLINK-37760,2026-115M,2026-06-17T14:00:01.000224,15.51436378,.00019886,97.2856,185.9891,121.6075,181.1268,0,U,69222,999,475,-.49664379E-1,-.2585519E-1,0
STARLINK-37759,2026-115N,2026-06-17T14:00:01.000224,15.49189811,.00013672,97.2846,185.8823,109.6167,301.1530,0,U,69223,999,475,.4344249E-3,.23608E-3,0
STARLINK-37725,2026-115P,2026-06-17T14:00:01.000224,15.49199225,.00013591,97.2844,185.8871,100.4545,322.8535,0,U,69224,999,475,.20200547E-3,.10915E-3,0
STARLINK-37770,2026-115Q,2026-06-17T14:00:01.000224,15.52568331,.00014097,97.2847,186.0004,101.7731,232.3969,0,U,69225,999,475,-.50594548E-1,-.2723778E-1,0
STARLINK-37736,2026-115R,2026-06-17T14:00:01.000224,15.51997931,.0001829,97.2852,185.9926,127.7926,176.3985,0,U,69226,999,475,-.64457743E-1,-.3374271E-1,0
STARLINK-37737,2026-115S,2026-06-17T14:00:01.000224,15.53293538,.00012112,97.2850,186.0163,99.9798,260.4667,0,U,69227,999,477,-.44305257E-1,-.2431344E-1,0
STARLINK-37618,2026-115T,2026-06-17T14:00:01.000224,15.49188462,.00018674,97.2844,185.8790,88.9268,315.3047,0,U,69228,999,475,.41972577E-3,.22803E-3,0
STARLINK-37679,2026-115U,2026-06-17T14:00:01.000224,15.49191058,.00011827,97.2843,185.8838,100.6097,318.0013,0,U,69229,999,475,.92638851E-4,.4951E-4,0
STARLINK-37746,2026-115V,2026-06-17T14:00:01.000224,15.49187423,.00008187,97.2848,185.8661,133.3815,239.6960,0,U,69230,999,475,.53732617E-3,.2924E-3,0
STARLINK-37557,2026-115W,2026-06-17T14:32:32.204256,15.49206045,.0001389,97.2837,185.8293,110.2573,249.8828,0,U,69231,999,473,.28797982E-3,.15612E-3,0
STARLINK-37745,2026-115X,2026-06-17T14:00:01.000224,15.54716251,.00013531,97.2851,186.0408,83.1104,335.5801,0,U,69232,999,475,-.43138467E-1,-.2485823E-1,0
STARLINK-37739,2026-115Y,2026-06-17T14:00:01.000224,15.49181593,.00012794,97.2849,185.8614,71.0091,291.2568,0,U,69233,999,475,.52260095E-3,.28427E-3,0
STARLINK-37755,2026-115Z,2026-06-17T13:50:11.907744,15.75228072,.00009358,97.2825,186.0228,123.4077,236.7278,0,U,69234,999,474,.74212819E-3,.112212E-2,0
STARLINK-37665,2026-117A,2026-06-17T13:28:15.820608,15.82037412,.00010272,53.1571,241.7449,66.1173,293.9958,0,U,69238,999,303,.81058648E-3,.17153E-2,0
STARLINK-37558,2026-117B,2026-06-17T13:26:53.644704,15.82023245,.0001237,53.1572,241.7383,90.9957,269.1208,0,U,69239,999,303,.54561772E-3,.114386E-2,0
STARLINK-37680,2026-117C,2026-06-17T13:24:49.032576,15.82043520,.00013628,53.1574,241.7280,136.0923,224.0209,0,U,69240,999,303,.73354002E-3,.154903E-2,0
STARLINK-37742,2026-117D,2026-06-17T13:22:15.103200,15.82043088,.00009258,53.1574,241.7173,74.6714,285.4411,0,U,69241,999,303,.84306738E-3,.178627E-2,0
STARLINK-37718,2026-117E,2026-06-17T10:18:31.540608,15.82103347,.00010372,53.1574,242.3421,104.3915,255.7223,0,U,69242,999,301,.14553733E-2,.314702E-2,0
STARLINK-37735,2026-117F,2026-06-17T13:20:19.308192,15.82070455,.00010057,53.1576,241.7081,72.0561,288.0572,0,U,69243,999,303,.12524239E-2,.268859E-2,0
STARLINK-37757,2026-117G,2026-06-17T13:16:52.450176,15.82022596,.00011757,53.1576,241.6915,87.0111,273.1047,0,U,69244,999,303,.65053369E-3,.136871E-2,0
STARLINK-37767,2026-117H,2026-06-17T13:10:43.905792,15.82015033,.0001059,53.1572,241.6614,81.8134,278.3009,0,U,69245,999,303,.5578675E-3,.116959E-2,0
