STARLINK-37700          
1 69215U 26115E   26168.57313479  .00021805  00000+0  40122-3 0  9997
2 69215  97.2832 185.5677 0001308  93.0706 267.0695 15.49206782  4713
STARLINK-37766          
1 69216U 26115F   26168.58334491  .00020564  00000+0  37878-3 0  9991
2 69216  97.2851 185.9319 0001437  78.1526  92.2320 15.49187943  4753
STARLINK-37763          
1 69217U 26115G   26168.58334491  .00009935  00000+0  18409-3 0  9990
2 69217  97.2847 185.8773 0001703  90.8406 311.3942 15.49189696  4758
STARLINK-37724          
1 69218U 26115H   26168.58334491 -.02447565  00000+0 -49549-1 0  9997
2 69218  97.2851 185.9753 0001808 100.0577 159.3419 15.49771349  4753
STARLINK-37758          
1 69219U 26115J   26168.58334491 -.02350452  00000+0 -47396-1 0  9994
2 69219  97.2851 185.9838 0001794 105.3254 176.0060 15.50340304  4755
STARLINK-37201          
1 69220U 26115K   26168.58334491 -.02468650  00000+0 -49837-1 0  9998
2 69220  97.2855 185.9821 0001893  99.2360 174.2755 15.49878861  4755
STARLINK-37728          
1 69221U 26115L   26168.58334491  .00030496  00000+0  56051-3 0  9996
2 69221  97.2850 185.9676 0000735 112.0870 139.7168 15.49174750  4753
STARLINK-37760          
1 69222U 26115M   26168.58334491 -.02585519  00000+0 -49664-1 0  9992
2 69222  97.2856 185.9891 0001988 121.6075 181.1268 15.51436378  4755
STARLINK-37759          
1 69223U 26115N   26168.58334491  .00023608  00000+0  43442-3 0  9995
2 69223  97.2846 185.8823 0001367 109.6167 301.1530 15.49189811  4758
STARLINK-37725          
1 69224U 26115P   26168.58334491  .00010915  00000+0  20201-3 0  9991
2 69224  97.2844 185.8871 0001359 100.4545 322.8535 15.49199225  4755
STARLINK-37770          
1 69225U 26115Q   26168.58334491 -.02723778  00000+0 -50595-1 0  9991
2 69225  97.2847 186.0004 0001409 101.7731 232.3969 15.52568331  4755
STARLINK-37736          
1 69226U 26115R   26168.58334491 -.03374271  00000+0 -64458-1 0  9996
2 69226  97.2852 185.9926 0001829 127.7926 176.3985 15.51997931  4759
STARLINK-37737          
1 69227U 26115S   26168.58334491 -.02431344  00000+0 -44305-1 0  9990
2 69227  97.2850 186.0163 0001211  99.9798 260.4667 15.53293538  4773
STARLINK-37618          
1 69228U 26115T   26168.58334491  .00022803  00000+0  41973-3 0  9993
2 69228  97.2844 185.8790 0001867  88.9268 315.3047 15.49188462  4751
STARLINK-37679          
1 69229U 26115U   26168.58334491  .00004951  00000+0  92639-4 0  9994
2 69229  97.2843 185.8838 0001182 100.6097 318.0013 15.49191058  4754
STARLINK-37746          
1 69230U 26115V   26168.58334491  .00029240  00000+0  53733-3 0  9995
2 69230  97.2848 185.8661 0000818 133.3815 239.6960 15.49187423  4751
STARLINK-37557          
1 69231U 26115W   26168.60592829  .00015612  00000+0  28798-3 0  9991
2 69231  97.2837 185.8293 0001389 110.2573 249.8828 15.49206045  4736
STARLINK-37745          
1 69232U 26115X   26168.58334491 -.02485823  00000+0 -43138-1 0  9990
2 69232  97.2851 186.0408 0001353  83.1104 335.5801 15.54716251  4750
STARLINK-37739          
1 69233U 26115Y   26168.58334491  .00028427  00000+0  52260-3 0  9998
2 69233  97.2849 185.8614 0001279  71.0091 291.2568 15.49181593  4759
STARLINK-37755          
1 69234U 26115Z   26168.57652671  .00112212  00000+0  74213-3 0  9999
2 69234  97.2825 186.0228 0000935 123.4077 236.7278 15.75228072  4746
STARLINK-37665          
1 69238U 26117A   26168.56129422  .00171530  00000+0  81059-3 0  9991
2 69238  53.1571 241.7449 0001027  66.1173 293.9958 15.82037412  3031
STARLINK-37558          
1 69239U 26117B   26168.56034311  .00114386  00000+0  54562-3 0  9999
2 69239  53.1572 241.7383 0001237  90.9957 269.1208 15.82023245  3030
STARLINK-37680          
1 69240U 26117C   26168.55890084  .00154903  00000+0  73354-3 0  9996
2 69240  53.1574 241.7280 0001362 136.0923 224.0209 15.82043520  3033
STARLINK-37742          
1 69241U 26117D   26168.55711925  .00178627  00000+0  84307-3 0  9992
2 69241  53.1574 241.7173 0000925  74.6714 285.4411 15.82043088  3039
STARLINK-37718          
1 69242U 26117E   26168.42953172  .00314702  00000+0  14554-2 0  9993
2 69242  53.1574 242.3421 0001037 104.3915 255.7223 15.82103347  3016
STARLINK-37735          
1 69243U 26117F   26168.55577903  .00268859  00000+0  12524-2 0  9998
2 69243  53.1576 241.7081 0001005  72.0561 288.0572 15.82070455  3038
STARLINK-37757          
1 69244U 26117G   26168.55338484  .00136871  00000+0  65053-3 0  9992
2 69244  53.1576 241.6915 0001175  87.0111 273.1047 15.82022596  3034
STARLINK-37767          
1 69245U 26117H   26168.54911928  .00116959  00000+0  55787-3 0  9990
2 69245  53.1572 241.6614 0001059  81.8134 278.3009 15.82015033  3038
